STARLINK-6299           
1 57358U 23099AG  26068.48685217  .00000578  00000+0  57893-4 0  9999
2 57358  43.0028 237.2503 0001472 267.4700  92.5973 15.02537302146979
EINSTEIN PROBE          
1 58753U 24007A   26068.60284448  .00004372  00000+0  31977-3 0  9994
2 58753  28.9980 140.9090 0009522 248.3814 111.5770 15.01336938118581
